{"fetched_at":"2026-07-21T07:06:45.212Z","source":"https://celestrak.org/NORAD/elements/gp.php?NAME=CENTAURI&FORMAT=JSON","constellation":"myriota","records":[{"OBJECT_NAME":"CENTAURI-1","OBJECT_ID":"2018-099BD","EPOCH":"2026-07-20T09:29:03.368832","CLASSIFICATION_TYPE":"U","MEAN_MOTION":15.16653293,"ECCENTRICITY":0.00134488,"INCLINATION":97.4199,"RA_OF_ASC_NODE":252.4045,"ARG_OF_PERICENTER":205.876,"MEAN_ANOMALY":154.1803,"EPHEMERIS_TYPE":0,"NORAD_CAT_ID":43809,"ELEMENT_SET_NO":999,"REV_AT_EPOCH":41753,"BSTAR":0.00013892551,"MEAN_MOTION_DOT":0.00002657,"MEAN_MOTION_DDOT":0},{"OBJECT_NAME":"CENTAURI-6","OBJECT_ID":"2024-066K","EPOCH":"2026-07-19T08:58:00.459552","CLASSIFICATION_TYPE":"U","MEAN_MOTION":15.06056915,"ECCENTRICITY":0.00017209,"INCLINATION":45.6065,"RA_OF_ASC_NODE":86.3676,"ARG_OF_PERICENTER":257.9076,"MEAN_ANOMALY":102.1616,"EPHEMERIS_TYPE":0,"NORAD_CAT_ID":59451,"ELEMENT_SET_NO":999,"REV_AT_EPOCH":12497,"BSTAR":0.00017389278,"MEAN_MOTION_DOT":0.00002332,"MEAN_MOTION_DDOT":0},{"OBJECT_NAME":"CENTAURI-7","OBJECT_ID":"2025-009DD","EPOCH":"2026-07-20T19:06:08.234496","CLASSIFICATION_TYPE":"U","MEAN_MOTION":14.97989973,"ECCENTRICITY":0.00023997,"INCLINATION":97.709,"RA_OF_ASC_NODE":281.6469,"ARG_OF_PERICENTER":94.564,"MEAN_ANOMALY":265.5857,"EPHEMERIS_TYPE":0,"NORAD_CAT_ID":62708,"ELEMENT_SET_NO":999,"REV_AT_EPOCH":8249,"BSTAR":0.000092322211,"MEAN_MOTION_DOT":0.00001031,"MEAN_MOTION_DDOT":0},{"OBJECT_NAME":"CENTAURI-8","OBJECT_ID":"2025-009DK","EPOCH":"2026-07-20T18:11:30.509664","CLASSIFICATION_TYPE":"U","MEAN_MOTION":14.97944815,"ECCENTRICITY":0.00025199,"INCLINATION":97.7034,"RA_OF_ASC_NODE":281.4258,"ARG_OF_PERICENTER":75.5483,"MEAN_ANOMALY":284.6019,"EPHEMERIS_TYPE":0,"NORAD_CAT_ID":62714,"ELEMENT_SET_NO":999,"REV_AT_EPOCH":8250,"BSTAR":0.00015645523,"MEAN_MOTION_DOT":0.00001786,"MEAN_MOTION_DDOT":0}]}
