CENTAURI-1              
1 43809U 18099BD  26201.39517788  .00002657  00000+0  13893-3 0  9996
2 43809  97.4199 252.4045 0013448 205.8760 154.1803 15.16653293417538
CENTAURI-6              
1 59451U 24066K   26200.37361643  .00002332  00000+0  17389-3 0  9995
2 59451  45.6065  86.3676 0001720 257.9076 102.1616 15.06056915124972
CENTAURI-7              
1 62708U 25009DD  26201.79592864  .00001031  00000+0  92322-4 0  9996
2 62708  97.7090 281.6469 0002399  94.5640 265.5857 14.97989973 82491
CENTAURI-8              
1 62714U 25009DK  26201.75799201  .00001786  00000+0  15646-3 0  9993
2 62714  97.7034 281.4258 0002519  75.5483 284.6019 14.97944815 82508
